{"type": "FeatureCollection", "features": [ {"type": "Feature", "properties": {"norad_id": 66849, "name": "STARLINK-36102", "group": "last-30-days", "lat": -42.22401608970251, "lon": -64.54600256273393, "alt_km": 417.6825325575146, "timestamp": "2025-12-26T14:28:46.396595+00:00", "meta": {"OBJECT_NAME": "STARLINK-36102", "OBJECT_ID": "2025-281B", "EPOCH": "2025-12-26T06:00:02.999808", "MEAN_MOTION": 15.50541845, "ECCENTRICITY": 0.00010855, "INCLINATION": 43.0004, "RA_OF_ASC_NODE": 40.6484, "ARG_OF_PERICENTER": 247.616, "MEAN_ANOMALY": 198.3121, "EPHEMERIS_TYPE": 0, "CLASSIFICATION_TYPE": "U", "NORAD_CAT_ID": 66849, "ELEMENT_SET_NO": 999, "REV_AT_EPOCH": 355, "BSTAR": 0.00062828516, "MEAN_MOTION_DOT": 0.0003664, "MEAN_MOTION_DDOT": 0}, "tle": {"line1": "1 66849U 25281B   25360.25003472  .00036640  00000+0  62829-3 0  9998", "line2": "2 66849  43.0004  40.6484 0001085 247.6160 198.3121 15.50541845  3558"}}, "geometry": {"type": "Point", "coordinates": [-64.54600256273393, -42.22401608970251]}}, {"type": "Feature", "properties": {"norad_id": 66850, "name": "STARLINK-36105", "group": "last-30-days", "lat": -42.48937337911659, "lon": -62.01061722431213, "alt_km": 417.7729295869967, "timestamp": "2025-12-26T14:28:46.396605+00:00", "meta": {"OBJECT_NAME": "STARLINK-36105", "OBJECT_ID": "2025-281C", "EPOCH": "2025-12-26T06:00:02.999808", "MEAN_MOTION": 15.50534997, "ECCENTRICITY": 9.892e-05, "INCLINATION": 43.0002, "RA_OF_ASC_NODE": 40.6438, "ARG_OF_PERICENTER": 249.527, "MEAN_ANOMALY": 198.3073, "EPHEMERIS_TYPE": 0, "CLASSIFICATION_TYPE": "U", "NORAD_CAT_ID": 66850, "ELEMENT_SET_NO": 999, "REV_AT_EPOCH": 355, "BSTAR": 0.00067345162, "MEAN_MOTION_DOT": 0.00039303, "MEAN_MOTION_DDOT": 0}, "tle": {"line1": "1 66850U 25281C   25360.25003472  .00039303  00000+0  67345-3 0  9997", "line2": "2 66850  43.0002  40.6438 0000989 249.5270 198.3073 15.50534997  3558"}}, "geometry": {"type": "Point", "coordinates": [-62.01061722431213, -42.48937337911659]}}, {"type": "Feature", "properties": {"norad_id": 66851, "name": "STARLINK-36094", "group": "last-30-days", "lat": -42.694339817265714, "lon": -59.51308011455963, "alt_km": 417.73487471639237, "timestamp": "2025-12-26T14:28:46.396615+00:00", "meta": {"OBJECT_NAME": "STARLINK-36094", "OBJECT_ID": "2025-281D", "EPOCH": "2025-12-26T06:00:02.999808", "MEAN_MOTION": 15.50517952, "ECCENTRICITY": 0.00011714, "INCLINATION": 43.0002, "RA_OF_ASC_NODE": 40.6396, "ARG_OF_PERICENTER": 233.1233, "MEAN_ANOMALY": 216.5718, "EPHEMERIS_TYPE": 0, "CLASSIFICATION_TYPE": "U", "NORAD_CAT_ID": 66851, "ELEMENT_SET_NO": 999, "REV_AT_EPOCH": 355, "BSTAR": 0.0011569969, "MEAN_MOTION_DOT": 0.00067977, "MEAN_MOTION_DDOT": 0}, "tle": {"line1": "1 66851U 25281D   25360.25003472  .00067977  00000+0  11570-2 0  9994", "line2": "2 66851  43.0002  40.6396 0001171 233.1233 216.5718 15.50517952  3555"}}, "geometry": {"type": "Point", "coordinates": [-59.51308011455963, -42.694339817265714]}}, {"type": "Feature", "properties": {"norad_id": 66852, "name": "STARLINK-35992", "group": "last-30-days", "lat": -42.84768309103356, "lon": -56.938718246918434, "alt_km": 418.2547686613934, "timestamp": "2025-12-26T14:28:46.396628+00:00", "meta": {"OBJECT_NAME": "STARLINK-35992", "OBJECT_ID": "2025-281E", "EPOCH": "2025-12-26T06:00:02.999808", "MEAN_MOTION": 15.50506511, "ECCENTRICITY": 3.852e-05, "INCLINATION": 43.0003, "RA_OF_ASC_NODE": 40.6349, "ARG_OF_PERICENTER": 292.5574, "MEAN_ANOMALY": 159.066, "EPHEMERIS_TYPE": 0, "CLASSIFICATION_TYPE": "U", "NORAD_CAT_ID": 66852, "ELEMENT_SET_NO": 999, "REV_AT_EPOCH": 355, "BSTAR": 0.0010439187, "MEAN_MOTION_DOT": 0.00061221, "MEAN_MOTION_DDOT": 0}, "tle": {"line1": "1 66852U 25281E   25360.25003472  .00061221  00000+0  10439-2 0  9994", "line2": "2 66852  43.0003  40.6349 0000385 292.5574 159.0660 15.50506511  3554"}}, "geometry": {"type": "Point", "coordinates": [-56.938718246918434, -42.84768309103356]}}, {"type": "Feature", "properties": {"norad_id": 66853, "name": "STARLINK-35986", "group": "last-30-days", "lat": -42.94326304278482, "lon": -54.33636982731352, "alt_km": 418.26712218128614, "timestamp": "2025-12-26T14:28:46.396654+00:00", "meta": {"OBJECT_NAME": "STARLINK-35986", "OBJECT_ID": "2025-281F", "EPOCH": "2025-12-26T06:00:02.999808", "MEAN_MOTION": 15.50508279, "ECCENTRICITY": 3.975e-05, "INCLINATION": 43.0003, "RA_OF_ASC_NODE": 40.6294, "ARG_OF_PERICENTER": 302.3078, "MEAN_ANOMALY": 151.2302, "EPHEMERIS_TYPE": 0, "CLASSIFICATION_TYPE": "U", "NORAD_CAT_ID": 66853, "ELEMENT_SET_NO": 999, "REV_AT_EPOCH": 355, "BSTAR": 0.0010299672, "MEAN_MOTION_DOT": 0.00060396, "MEAN_MOTION_DDOT": 0}, "tle": {"line1": "1 66853U 25281F   25360.25003472  .00060396  00000+0  10300-2 0  9994", "line2": "2 66853  43.0003  40.6294 0000397 302.3078 151.2302 15.50508279  3556"}}, "geometry": {"type": "Point", "coordinates": [-54.33636982731352, -42.94326304278482]}}, {"type": "Feature", "properties": {"norad_id": 66854, "name": "STARLINK-36087", "group": "last-30-days", "lat": -42.97941762295372, "lon": -51.72137320309721, "alt_km": 418.23982328171405, "timestamp": "2025-12-26T14:28:46.396665+00:00", "meta": {"OBJECT_NAME": "STARLINK-36087", "OBJECT_ID": "2025-281G", "EPOCH": "2025-12-26T06:00:02.999808", "MEAN_MOTION": 15.5050801, "ECCENTRICITY": 4.201e-05, "INCLINATION": 43.0002, "RA_OF_ASC_NODE": 40.6245, "ARG_OF_PERICENTER": 296.871, "MEAN_ANOMALY": 158.5881, "EPHEMERIS_TYPE": 0, "CLASSIFICATION_TYPE": "U", "NORAD_CAT_ID": 66854, "ELEMENT_SET_NO": 999, "REV_AT_EPOCH": 355, "BSTAR": 0.0010110419, "MEAN_MOTION_DOT": 0.0005927, "MEAN_MOTION_DDOT": 0}, "tle": {"line1": "1 66854U 25281G   25360.25003472  .00059270  00000+0  10110-2 0  9993", "line2": "2 66854  43.0002  40.6245 0000420 296.8710 158.5881 15.50508010  3554"}}, "geometry": {"type": "Point", "coordinates": [-51.72137320309721, -42.97941762295372]}}, {"type": "Feature", "properties": {"norad_id": 66855, "name": "STARLINK-36090", "group": "last-30-days", "lat": -42.95571940337247, "lon": -49.106695317532015, "alt_km": 418.16076137488926, "timestamp": "2025-12-26T14:28:46.396675+00:00", "meta": {"OBJECT_NAME": "STARLINK-36090", "OBJECT_ID": "2025-281H", "EPOCH": "2025-12-26T06:00:02.999808", "MEAN_MOTION": 15.50510705, "ECCENTRICITY": 5.882e-05, "INCLINATION": 43, "RA_OF_ASC_NODE": 40.6201, "ARG_OF_PERICENTER": 300.7984, "MEAN_ANOMALY": 156.5829, "EPHEMERIS_TYPE": 0, "CLASSIFICATION_TYPE": "U", "NORAD_CAT_ID": 66855, "ELEMENT_SET_NO": 999, "REV_AT_EPOCH": 343, "BSTAR": 0.00082649987, "MEAN_MOTION_DOT": 0.00048326, "MEAN_MOTION_DDOT": 0}, "tle": {"line1": "1 66855U 25281H   25360.25003472  .00048326  00000+0  82650-3 0  9993", "line2": "2 66855  43.0000  40.6201 0000588 300.7984 156.5829 15.50510705  3439"}}, "geometry": {"type": "Point", "coordinates": [-49.106695317532015, -42.95571940337247]}}, {"type": "Feature", "properties": {"norad_id": 66856, "name": "STARLINK-36072", "group": "last-30-days", "lat": -42.869835586078615, "lon": -46.43003293738793, "alt_km": 417.91927482490155, "timestamp": "2025-12-26T14:28:46.396686+00:00", "meta": {"OBJECT_NAME": "STARLINK-36072", "OBJECT_ID": "2025-281J", "EPOCH": "2025-12-26T06:00:02.999808", "MEAN_MOTION": 15.50524153, "ECCENTRICITY": 8.893e-05, "INCLINATION": 43.0002, "RA_OF_ASC_NODE": 40.6142, "ARG_OF_PERICENTER": 249.4092, "MEAN_ANOMALY": 209.921, "EPHEMERIS_TYPE": 0, "CLASSIFICATION_TYPE": "U", "NORAD_CAT_ID": 66856, "ELEMENT_SET_NO": 999, "REV_AT_EPOCH": 355, "BSTAR": 0.00068827509, "MEAN_MOTION_DOT": 0.00040164, "MEAN_MOTION_DDOT": 0}, "tle": {"line1": "1 66856U 25281J   25360.25003472  .00040164  00000+0  68828-3 0  9997", "line2": "2 66856  43.0002  40.6142 0000889 249.4092 209.9210 15.50524153  3551"}}, "geometry": {"type": "Point", "coordinates": [-46.43003293738793, -42.869835586078615]}}, {"type": "Feature", "properties": {"norad_id": 66857, "name": "STARLINK-36083", "group": "last-30-days", "lat": -42.72511814580551, "lon": -43.81858417885586, "alt_km": 417.87558355987767, "timestamp": "2025-12-26T14:28:46.396698+00:00", "meta": {"OBJECT_NAME": "STARLINK-36083", "OBJECT_ID": "2025-281K", "EPOCH": "2025-12-26T06:00:02.999808", "MEAN_MOTION": 15.50526648, "ECCENTRICITY": 0.00010032, "INCLINATION": 43.0002, "RA_OF_ASC_NODE": 40.6095, "ARG_OF_PERICENTER": 243.2384, "MEAN_ANOMALY": 218.0151, "EPHEMERIS_TYPE": 0, "CLASSIFICATION_TYPE": "U", "NORAD_CAT_ID": 66857, "ELEMENT_SET_NO": 999, "REV_AT_EPOCH": 355, "BSTAR": 0.00067854133, "MEAN_MOTION_DOT": 0.00039592, "MEAN_MOTION_DDOT": 0}, "tle": {"line1": "1 66857U 25281K   25360.25003472  .00039592  00000+0  67854-3 0  9999", "line2": "2 66857  43.0002  40.6095 0001003 243.2384 218.0151 15.50526648  3550"}}, "geometry": {"type": "Point", "coordinates": [-43.81858417885586, -42.72511814580551]}}, {"type": "Feature", "properties": {"norad_id": 66858, "name": "STARLINK-35118", "group": "last-30-days", "lat": -42.52182807031962, "lon": -41.230442403486684, "alt_km": 417.8335864595256, "timestamp": "2025-12-26T14:28:46.396709+00:00", "meta": {"OBJECT_NAME": "STARLINK-35118", "OBJECT_ID": "2025-281L", "EPOCH": "2025-12-26T06:00:02.999808", "MEAN_MOTION": 15.50527464, "ECCENTRICITY": 0.00010945, "INCLINATION": 43.0001, "RA_OF_ASC_NODE": 40.6045, "ARG_OF_PERICENTER": 241.3906, "MEAN_ANOMALY": 221.7817, "EPHEMERIS_TYPE": 0, "CLASSIFICATION_TYPE": "U", "NORAD_CAT_ID": 66858, "ELEMENT_SET_NO": 999, "REV_AT_EPOCH": 334, "BSTAR": 0.00070947329, "MEAN_MOTION_DOT": 0.00041423, "MEAN_MOTION_DDOT": 0}, "tle": {"line1": "1 66858U 25281L   25360.25003472  .00041423  00000+0  70947-3 0  9993", "line2": "2 66858  43.0001  40.6045 0001094 241.3906 221.7817 15.50527464  3348"}}, "geometry": {"type": "Point", "coordinates": [-41.230442403486684, -42.52182807031962]}}]}